IRIDIUM 36              
1 24967U 97056C   24219.75109218  .00000781  00000+0  25745-3 0  9997
2 24967  86.3981 305.0679 0002084  91.6420 268.5016 14.36929452407050
IRIDIUM 39              
1 25042U 97069D   24219.86795595  .00001529  00000+0  40484-3 0  9995
2 25042  86.3958 345.8592 0016098 276.1254  83.8115 14.48128590403455
IRIDIUM 42              
1 25077U 97077A   24219.92543669  .00000915  00000+0  31062-3 0  9992
2 25077  86.3987  11.1180 0002712  86.6652 273.4855 14.35668058396098
IRIDIUM 44              
1 25078U 97077B   24219.88952108  .00000924  00000+0  29018-3 0  9998
2 25078  86.3994 353.9101 0002221  43.4648 316.6725 14.39517328398475
IRIDIUM 45              
1 25104U 97082A   24219.91327979  .00026520  00000+0  14108-2 0  9993
2 25104  86.3757 198.4152 0156730  55.6298 305.9646 15.05053191404480
IRIDIUM 24              
1 25105U 97082B   24219.91500331  .00001030  00000+0  31228-3 0  9991
2 25105  86.3912 213.3985 0013046  44.6791 315.5457 14.41306594397938
